CTC1_L_00185001-01
1 17369U 24458HR  26037.47803241  .00000000  00000+0  00000-0 0  9995
2 17369  70.0000   0.0000 0000000   0.0000   0.0000 13.69880581    15
CTC1_L_00185001-02
1 17370U 24151SD  26037.47803241  .00000000  00000+0  00000-0 0  9997
2 17370  70.0000   0.0000 0000000   0.0000  90.0000 13.69880581    16
CTC1_L_00185001-03
1 17371U 25775VE  26037.47803241  .00000000  00000+0  00000-0 0  9991
2 17371  70.0000   0.0000 0000000   0.0000 180.0000 13.69880581    17
CTC1_L_00185001-04
1 17372U 26138WL  26037.47803241  .00000000  00000+0  00000-0 0  9996
2 17372  70.0000   0.0000 0000000   0.0000 270.0000 13.69880581    18
CTC1_L_00185002-01
1 17373U 24827KU  26037.47803241  .00000000  00000+0  00000-0 0  9990
2 17373  70.0000  12.0000 0000000   0.0000  12.0000 13.69880581    16
CTC1_L_00185002-02
1 17374U 23468SA  26037.47803241  .00000000  00000+0  00000-0 0  9991
2 17374  70.0000  12.0000 0000000   0.0000 102.0000 13.69880581    17
CTC1_L_00185002-03
1 17375U 23301HP  26037.47803241  .00000000  00000+0  00000-0 0  9998
2 17375  70.0000  12.0000 0000000   0.0000 192.0000 13.69880581    17
CTC1_L_00185002-04
1 17376U 26453DZ  26037.47803241  .00000000  00000+0  00000-0 0  9990
2 17376  70.0000  12.0000 0000000   0.0000 282.0000 13.69880581    18
CTC1_L_00185003-01
1 17377U 24800QU  26037.47803241  .00000000  00000+0  00000-0 0  9995
2 17377  70.0000  24.0000 0000000   0.0000  24.0000 13.69880581    16
CTC1_L_00185003-02
1 17378U 24283ND  26037.47803241  .00000000  00000+0  00000-0 0  9991
2 17378  70.0000  24.0000 0000000   0.0000 114.0000 13.69880581    17
CTC1_L_00185003-03
1 17379U 26757GJ  26037.47803241  .00000000  00000+0  00000-0 0  9990
2 17379  70.0000  24.0000 0000000   0.0000 204.0000 13.69880581    18
CTC1_L_00185003-04
1 17380U 24796ZR  26037.47803241  .00000000  00000+0  00000-0 0  9993
2 17380  70.0000  24.0000 0000000   0.0000 294.0000 13.69880581    19
CTC1_L_00185004-01
1 17381U 26985LB  26037.47803241  .00000000  00000+0  00000-0 0  9996
2 17381  70.0000  36.0000 0000000   0.0000  36.0000 13.69880581    17
CTC1_L_00185004-02
1 17382U 23718GO  26037.47803241  .00000000  00000+0  00000-0 0  9998
2 17382  70.0000  36.0000 0000000   0.0000 126.0000 13.69880581    18
CTC1_L_00185004-03
1 17383U 23442FJ  26037.47803241  .00000000  00000+0  00000-0 0  9993
2 17383  70.0000  36.0000 0000000   0.0000 216.0000 13.69880581    19
CTC1_L_00185004-04
1 17384U 24430JI  26037.47803241  .00000000  00000+0  00000-0 0  9992
2 17384  70.0000  36.0000 0000000   0.0000 306.0000 13.69880581    10
CTC1_L_00185005-01
1 17385U 23646QT  26037.47803241  .00000000  00000+0  00000-0 0  9991
2 17385  70.0000  48.0000 0000000   0.0000  48.0000 13.69880581    17
CTC1_L_00185005-02
1 17386U 22056QJ  26037.47803241  .00000000  00000+0  00000-0 0  9996
2 17386  70.0000  48.0000 0000000   0.0000 138.0000 13.69880581    18
CTC1_L_00185005-03
1 17387U 23922M   26037.47803241  .00000000  00000+0  00000-0 0  9990
2 17387  70.0000  48.0000 0000000   0.0000 228.0000 13.69880581    19
CTC1_L_00185005-04
1 17388U 23315ZS  26037.47803241  .00000000  00000+0  00000-0 0  9997
2 17388  70.0000  48.0000 0000000   0.0000 318.0000 13.69880581    10
CTC1_L_00185006-01
1 17389U 24219HL  26037.47803241  .00000000  00000+0  00000-0 0  9992
2 17389  70.0000  60.0000 0000000   0.0000  60.0000 13.69880581    19
CTC1_L_00185006-02
1 17390U 24124KF  26037.47803241  .00000000  00000+0  00000-0 0  9999
2 17390  70.0000  60.0000 0000000   0.0000 150.0000 13.69880581    11
CTC1_L_00185006-03
1 17391U 24199WS  26037.47803241  .00000000  00000+0  00000-0 0  9992
2 17391  70.0000  60.0000 0000000   0.0000 240.0000 13.69880581    12
CTC1_L_00185006-04
1 17392U 25108FR  26037.47803241  .00000000  00000+0  00000-0 0  9994
2 17392  70.0000  60.0000 0000000   0.0000 330.0000 13.69880581    13
CTC1_L_00185007-01
1 17393U 25020K   26037.47803241  .00000000  00000+0  00000-0 0  9998
2 17393  70.0000  72.0000 0000000   0.0000  72.0000 13.69880581    10
CTC1_L_00185007-02
1 17394U 25405MI  26037.47803241  .00000000  00000+0  00000-0 0  9996
2 17394  70.0000  72.0000 0000000   0.0000 162.0000 13.69880581    11
CTC1_L_00185007-03
1 17395U 23508BZ  26037.47803241  .00000000  00000+0  00000-0 0  9999
2 17395  70.0000  72.0000 0000000   0.0000 252.0000 13.69880581    12
CTC1_L_00185007-04
1 17396U 23927WV  26037.47803241  .00000000  00000+0  00000-0 0  9995
2 17396  70.0000  72.0000 0000000   0.0000 342.0000 13.69880581    13
CTC1_L_00185008-01
1 17397U 26057AB  26037.47803241  .00000000  00000+0  00000-0 0  9993
2 17397  70.0000  84.0000 0000000   0.0000  84.0000 13.69880581    10
CTC1_L_00185008-02
1 17398U 22180QN  26037.47803241  .00000000  00000+0  00000-0 0  9997
2 17398  70.0000  84.0000 0000000   0.0000 174.0000 13.69880581    11
CTC1_L_00185008-03
1 17399U 22418RY  26037.47803241  .00000000  00000+0  00000-0 0  9992
2 17399  70.0000  84.0000 0000000   0.0000 264.0000 13.69880581    12
CTC1_L_00185008-04
1 17400U 22264Z   26037.47803241  .00000000  00000+0  00000-0 0  9994
2 17400  70.0000  84.0000 0000000   0.0000 354.0000 13.69880581    15
CTC1_L_00185009-01
1 17401U 23285OF  26037.47803241  .00000000  00000+0  00000-0 0  9999
2 17401  70.0000  96.0000 0000000   0.0000  96.0000 13.69880581    12
CTC1_L_00185009-02
1 17402U 23574KJ  26037.47803241  .00000000  00000+0  00000-0 0  9991
2 17402  70.0000  96.0000 0000000   0.0000 186.0000 13.69880581    13
CTC1_L_00185009-03
1 17403U 25143UL  26037.47803241  .00000000  00000+0  00000-0 0  9996
2 17403  70.0000  96.0000 0000000   0.0000 276.0000 13.69880581    14
CTC1_L_00185009-04
1 17404U 25815FF  26037.47803241  .00000000  00000+0  00000-0 0  9993
2 17404  70.0000  96.0000 0000000   0.0000   6.0000 13.69880581    16
CTC1_L_00185010-01
1 17405U 25456UB  26037.47803241  .00000000  00000+0  00000-0 0  9995
2 17405  70.0000 108.0000 0000000   0.0000 108.0000 13.69880581    14
CTC1_L_00185010-02
1 17406U 26206X   26037.47803241  .00000000  00000+0  00000-0 0  9990
2 17406  70.0000 108.0000 0000000   0.0000 198.0000 13.69880581    14
CTC1_L_00185010-03
1 17407U 23571BC  26037.47803241  .00000000  00000+0  00000-0 0  9993
2 17407  70.0000 108.0000 0000000   0.0000 288.0000 13.69880581    15
CTC1_L_00185010-04
1 17408U 26812LT  26037.47803241  .00000000  00000+0  00000-0 0  9995
2 17408  70.0000 108.0000 0000000   0.0000  18.0000 13.69880581    17
CTC1_L_00185011-01
1 17409U 24962S   26037.47803241  .00000000  00000+0  00000-0 0  9990
2 17409  70.0000 120.0000 0000000   0.0000 120.0000 13.69880581    16
CTC1_L_00185011-02
1 17410U 22620OS  26037.47803241  .00000000  00000+0  00000-0 0  9991
2 17410  70.0000 120.0000 0000000   0.0000 210.0000 13.69880581    18
CTC1_L_00185011-03
1 17411U 24164KJ  26037.47803241  .00000000  00000+0  00000-0 0  9997
2 17411  70.0000 120.0000 0000000   0.0000 300.0000 13.69880581    19
CTC1_L_00185011-04
1 17412U 26359WI  26037.47803241  .00000000  00000+0  00000-0 0  9996
2 17412  70.0000 120.0000 0000000   0.0000  30.0000 13.69880581    10
CTC1_L_00185012-01
1 17413U 26027BF  26037.47803241  .00000000  00000+0  00000-0 0  9999
2 17413  70.0000 132.0000 0000000   0.0000 132.0000 13.69880581    17
CTC1_L_00185012-02
1 17414U 24788ON  26037.47803241  .00000000  00000+0  00000-0 0  9992
2 17414  70.0000 132.0000 0000000   0.0000 222.0000 13.69880581    18
CTC1_L_00185012-03
1 17415U 22170IJ  26037.47803241  .00000000  00000+0  00000-0 0  9996
2 17415  70.0000 132.0000 0000000   0.0000 312.0000 13.69880581    19
CTC1_L_00185012-04
1 17416U 24755JU  26037.47803241  .00000000  00000+0  00000-0 0  9998
2 17416  70.0000 132.0000 0000000   0.0000  42.0000 13.69880581    10
CTC1_L_00185013-01
1 17417U 22742HL  26037.47803241  .00000000  00000+0  00000-0 0  9993
2 17417  70.0000 144.0000 0000000   0.0000 144.0000 13.69880581    17
CTC1_L_00185013-02
1 17418U 22747OZ  26037.47803241  .00000000  00000+0  00000-0 0  9999
2 17418  70.0000 144.0000 0000000   0.0000 234.0000 13.69880581    18
CTC1_L_00185013-03
1 17419U 25128UI  26037.47803241  .00000000  00000+0  00000-0 0  9996
2 17419  70.0000 144.0000 0000000   0.0000 324.0000 13.69880581    19
CTC1_L_00185013-04
1 17420U 23431G   26037.47803241  .00000000  00000+0  00000-0 0  9993
2 17420  70.0000 144.0000 0000000   0.0000  54.0000 13.69880581    11
CTC1_L_00185014-01
1 17421U 26728JW  26037.47803241  .00000000  00000+0  00000-0 0  9996
2 17421  70.0000 156.0000 0000000   0.0000 156.0000 13.69880581    18
CTC1_L_00185014-02
1 17422U 26036IJ  26037.47803241  .00000000  00000+0  00000-0 0  9999
2 17422  70.0000 156.0000 0000000   0.0000 246.0000 13.69880581    19
CTC1_L_00185014-03
1 17423U 23911ER  26037.47803241  .00000000  00000+0  00000-0 0  9999
2 17423  70.0000 156.0000 0000000   0.0000 336.0000 13.69880581    10
CTC1_L_00185014-04
1 17424U 25174DI  26037.47803241  .00000000  00000+0  00000-0 0  9993
2 17424  70.0000 156.0000 0000000   0.0000  66.0000 13.69880581    11
CTC1_L_00185015-01
1 17425U 25615IJ  26037.47803241  .00000000  00000+0  00000-0 0  9994
2 17425  70.0000 168.0000 0000000   0.0000 168.0000 13.69880581    18
CTC1_L_00185015-02
1 17426U 24091MN  26037.47803241  .00000000  00000+0  00000-0 0  9992
2 17426  70.0000 168.0000 0000000   0.0000 258.0000 13.69880581    19
CTC1_L_00185015-03
1 17427U 23656GU  26037.47803241  .00000000  00000+0  00000-0 0  9999
2 17427  70.0000 168.0000 0000000   0.0000 348.0000 13.69880581    10
CTC1_L_00185015-04
1 17428U 22686IK  26037.47803241  .00000000  00000+0  00000-0 0  9992
2 17428  70.0000 168.0000 0000000   0.0000  78.0000 13.69880581    11
CTC1_L_00185016-01
1 17429U 24861FB  26037.47803241  .00000000  00000+0  00000-0 0  9990
2 17429  70.0000 180.0000 0000000   0.0000 180.0000 13.69880581    10
CTC1_L_00185016-02
1 17430U 22142TB  26037.47803241  .00000000  00000+0  00000-0 0  9992
2 17430  70.0000 180.0000 0000000   0.0000 270.0000 13.69880581    12
